start=new Date('2022-12-22T00:00:00.000Z').valueOf();
sats=[{"TLE_LINE2":"2 47666  53.0577 279.4150 0001567  67.1052 293.0102 15.06382549103314","CENTER_NAME":"EARTH","FILE":"3716551","SEMIMAJOR_AXIS":"6925.402","INCLINATION":"53.0577","SITE":"AFETR","OBJECT_NAME":"STARLINK-2057","OBJECT_ID":"2021-012AY","BSTAR":"-0.00004526000000","TLE_LINE1":"1 47666U 21012AY  22355.21176728 -.00000955  00000-0 -45260-4 0  9998","PERIAPSIS":"546.182","LAUNCH_DATE":"2021-02-16","OBJECT_TYPE":"PAYLOAD","REV_AT_EPOCH":"10331","APOAPSIS":"548.352","COUNTRY_CODE":"US","RA_OF_ASC_NODE":"279.4150","ARG_OF_PERICENTER":"67.1052","MEAN_MOTION_DOT":"-0.00000955","TIME_SYSTEM":"UTC","ELEMENT_SET_NO":"999","REF_FRAME":"TEME","DECAY_DATE":null,"EPOCH":"2022-12-21T05:04:56.692992","NORAD_CAT_ID":"47666","RCS_SIZE":"LARGE","CLASSIFICATION_TYPE":"U","MEAN_MOTION_DDOT":"0.0000000000000","GP_ID":"221117084","MEAN_MOTION":"15.06382549","ECCENTRICITY":"0.00015670","MEAN_ELEMENT_THEORY":"SGP4","EPHEMERIS_TYPE":"0","PERIOD":"95.593","MEAN_ANOMALY":"293.0102"},{"TLE_LINE2":"2 47667  53.0528 302.3289 0001580 105.3059 254.8105 15.06402274102503","FILE":"3716761","CENTER_NAME":"EARTH","INCLINATION":"53.0528","SEMIMAJOR_AXIS":"6925.342","OBJECT_ID":"2021-012AZ","SITE":"AFETR","OBJECT_NAME":"STARLINK-2058","PERIAPSIS":"546.112","BSTAR":"0.00122540000000","TLE_LINE1":"1 47667U 21012AZ  22355.59829662  .00018019  00000-0  12254-2 0  9995","REV_AT_EPOCH":"10250","OBJECT_TYPE":"PAYLOAD","LAUNCH_DATE":"2021-02-16","COUNTRY_CODE":"US","APOAPSIS":"548.301","TIME_SYSTEM":"UTC","RA_OF_ASC_NODE":"302.3289","ARG_OF_PERICENTER":"105.3059","MEAN_MOTION_DOT":"0.00018019","ELEMENT_SET_NO":"999","REF_FRAME":"TEME","DECAY_DATE":null,"NORAD_CAT_ID":"47667","EPOCH":"2022-12-21T14:21:32.827968","RCS_SIZE":"LARGE","CLASSIFICATION_TYPE":"U","ECCENTRICITY":"0.00015800","MEAN_MOTION_DDOT":"0.0000000000000","GP_ID":"221122224","MEAN_MOTION":"15.06402274","MEAN_ELEMENT_THEORY":"SGP4","EPHEMERIS_TYPE":"0","MEAN_ANOMALY":"254.8105","PERIOD":"95.592"},{"MEAN_ANOMALY":"286.7844","PERIOD":"95.593","EPHEMERIS_TYPE":"0","MEAN_ELEMENT_THEORY":"SGP4","ECCENTRICITY":"0.00015190","GP_ID":"221116611","MEAN_MOTION":"15.06384423","MEAN_MOTION_DDOT":"0.0000000000000","CLASSIFICATION_TYPE":"U","RCS_SIZE":"LARGE","NORAD_CAT_ID":"47668","EPOCH":"2022-12-21T12:11:30.112224","REF_FRAME":"TEME","DECAY_DATE":null,"ELEMENT_SET_NO":"999","TIME_SYSTEM":"UTC","MEAN_MOTION_DOT":"-0.00000938","ARG_OF_PERICENTER":"73.3311","RA_OF_ASC_NODE":"282.7271","COUNTRY_CODE":"US","APOAPSIS":"548.313","REV_AT_EPOCH":"10329","OBJECT_TYPE":"PAYLOAD","LAUNCH_DATE":"2021-02-16","PERIAPSIS":"546.209","TLE_LINE1":"1 47668U 21012BA  22355.50798741 -.00000938  00000-0 -44099-4 0  9997","BSTAR":"-0.00004409900000","OBJECT_ID":"2021-012BA","OBJECT_NAME":"STARLINK-2059","SITE":"AFETR","INCLINATION":"53.0560","SEMIMAJOR_AXIS":"6925.396","FILE":"3716551","CENTER_NAME":"EARTH","TLE_LINE2":"2 47668  53.0560 282.7271 0001519  73.3311 286.7844 15.06384423103295"},{"COUNTRY_CODE":"US","APOAPSIS":"518.997","REV_AT_EPOCH":"10439","LAUNCH_DATE":"2021-02-16","OBJECT_TYPE":"PAYLOAD","PERIAPSIS":"512.727","BSTAR":"0.00156900000000","TLE_LINE1":"1 47669U 21012BB  22355.29614932  .00030928  00000-0  15690-2 0  9996","OBJECT_ID":"2021-012BB","SITE":"AFETR","OBJECT_NAME":"STARLINK-2060","INCLINATION":"53.0491","SEMIMAJOR_AXIS":"6893.997","FILE":"3716551","CENTER_NAME":"EARTH","TLE_LINE2":"2 47669  53.0491 200.8785 0004548 125.0210 235.1211 15.16687544104397","MEAN_ANOMALY":"235.1211","PERIOD":"94.944","MEAN_ELEMENT_THEORY":"SGP4","EPHEMERIS_TYPE":"0","ECCENTRICITY":"0.00045480","MEAN_MOTION_DDOT":"0.0000000000000","GP_ID":"221117363","MEAN_MOTION":"15.16687544","RCS_SIZE":"LARGE","CLASSIFICATION_TYPE":"U","NORAD_CAT_ID":"47669","EPOCH":"2022-12-21T07:06:27.301248","ELEMENT_SET_NO":"999","REF_FRAME":"TEME","DECAY_DATE":null,"TIME_SYSTEM":"UTC","RA_OF_ASC_NODE":"200.8785","ARG_OF_PERICENTER":"125.0210","MEAN_MOTION_DOT":"0.00030928"},{"SITE":"AFETR","OBJECT_NAME":"STARLINK-2062","OBJECT_ID":"2021-012BC","SEMIMAJOR_AXIS":"6925.416","INCLINATION":"53.0544","CENTER_NAME":"EARTH","FILE":"3716551","TLE_LINE2":"2 47670  53.0544 282.6665 0001446  65.3675 294.7464 15.06378120103282","APOAPSIS":"548.282","COUNTRY_CODE":"US","OBJECT_TYPE":"PAYLOAD","LAUNCH_DATE":"2021-02-16","REV_AT_EPOCH":"10328","BSTAR":"-0.00044708000000","TLE_LINE1":"1 47670U 21012BC  22355.52271980 -.00006930  00000-0 -44708-3 0  9997","PERIAPSIS":"546.279","RCS_SIZE":"LARGE","CLASSIFICATION_TYPE":"U","EPOCH":"2022-12-21T12:32:42.990720","NORAD_CAT_ID":"47670","ELEMENT_SET_NO":"999","REF_FRAME":"TEME","DECAY_DATE":null,"RA_OF_ASC_NODE":"282.6665","ARG_OF_PERICENTER":"65.3675","MEAN_MOTION_DOT":"-0.00006930","TIME_SYSTEM":"UTC","PERIOD":"95.594","MEAN_ANOMALY":"294.7464","MEAN_ELEMENT_THEORY":"SGP4","EPHEMERIS_TYPE":"0","MEAN_MOTION_DDOT":"0.0000000000000","MEAN_MOTION":"15.06378120","GP_ID":"221117584","ECCENTRICITY":"0.00014460"},{"COUNTRY_CODE":"US","APOAPSIS":"548.214","REV_AT_EPOCH":"10323","LAUNCH_DATE":"2021-02-16","OBJECT_TYPE":"PAYLOAD","PERIAPSIS":"546.348","BSTAR":"-0.00004369200000","TLE_LINE1":"1 47671U 21012BD  22355.10622810 -.00000932  00000-0 -43692-4 0  9992","OBJECT_ID":"2021-012BD","SITE":"AFETR","OBJECT_NAME":"STARLINK-2064","INCLINATION":"53.0568","SEMIMAJOR_AXIS":"6925.416","FILE":"3716551","CENTER_NAME":"EARTH","TLE_LINE2":"2 47671  53.0568 284.5237 0001347  74.2134 285.9003 15.06377948103237","MEAN_ANOMALY":"285.9003","PERIOD":"95.594","MEAN_ELEMENT_THEORY":"SGP4","EPHEMERIS_TYPE":"0","ECCENTRICITY":"0.00013470","MEAN_MOTION_DDOT":"0.0000000000000","GP_ID":"221115862","MEAN_MOTION":"15.06377948","RCS_SIZE":"LARGE","CLASSIFICATION_TYPE":"U","NORAD_CAT_ID":"47671","EPOCH":"2022-12-21T02:32:58.107840","ELEMENT_SET_NO":"999","DECAY_DATE":null,"REF_FRAME":"TEME","TIME_SYSTEM":"UTC","RA_OF_ASC_NODE":"284.5237","ARG_OF_PERICENTER":"74.2134","MEAN_MOTION_DOT":"-0.00000932"},{"TLE_LINE2":"2 47672  53.0551 272.8490 0001391  78.2493 281.8652 15.06394596102908","FILE":"3716751","CENTER_NAME":"EARTH","INCLINATION":"53.0551","SEMIMAJOR_AXIS":"6925.365","OBJECT_ID":"2021-012BE","OBJECT_NAME":"STARLINK-2065","SITE":"AFETR","PERIAPSIS":"546.267","TLE_LINE1":"1 47672U 21012BE  22355.48309575 -.00000200  00000-0  54484-5 0  9993","BSTAR":"0.00000544840000","REV_AT_EPOCH":"10290","OBJECT_TYPE":"PAYLOAD","LAUNCH_DATE":"2021-02-16","COUNTRY_CODE":"US","APOAPSIS":"548.193","TIME_SYSTEM":"UTC","MEAN_MOTION_DOT":"-0.00000200","ARG_OF_PERICENTER":"78.2493","RA_OF_ASC_NODE":"272.8490","REF_FRAME":"TEME","DECAY_DATE":null,"ELEMENT_SET_NO":"999","NORAD_CAT_ID":"47672","EPOCH":"2022-12-21T11:35:39.472800","CLASSIFICATION_TYPE":"U","RCS_SIZE":"LARGE","ECCENTRICITY":"0.00013910","MEAN_MOTION":"15.06394596","GP_ID":"221122746","MEAN_MOTION_DDOT":"0.0000000000000","EPHEMERIS_TYPE":"0","MEAN_ELEMENT_THEORY":"SGP4","MEAN_ANOMALY":"281.8652","PERIOD":"95.592"},{"APOAPSIS":"548.194","COUNTRY_CODE":"US","LAUNCH_DATE":"2021-02-16","OBJECT_TYPE":"PAYLOAD","REV_AT_EPOCH":"10328","TLE_LINE1":"1 47673U 21012BF  22355.52640933 -.00000173  00000-0  72559-5 0  9997","BSTAR":"0.00000725590000","PERIAPSIS":"546.309","OBJECT_NAME":"STARLINK-2066","SITE":"AFETR","OBJECT_ID":"2021-012BF","SEMIMAJOR_AXIS":"6925.386","INCLINATION":"53.0544","CENTER_NAME":"EARTH","FILE":"3716551","TLE_LINE2":"2 47673  53.0544 282.6545 0001361  78.0468 282.0674 15.06387670103282","PERIOD":"95.593","MEAN_ANOMALY":"282.0674","EPHEMERIS_TYPE":"0","MEAN_ELEMENT_THEORY":"SGP4","GP_ID":"221116864","MEAN_MOTION":"15.06387670","MEAN_MOTION_DDOT":"0.0000000000000","ECCENTRICITY":"0.00013610","CLASSIFICATION_TYPE":"U","RCS_SIZE":"LARGE","EPOCH":"2022-12-21T12:38:01.766112","NORAD_CAT_ID":"47673","DECAY_DATE":null,"REF_FRAME":"TEME","ELEMENT_SET_NO":"999","MEAN_MOTION_DOT":"-0.00000173","RA_OF_ASC_NODE":"282.6545","ARG_OF_PERICENTER":"78.0468","TIME_SYSTEM":"UTC"},{"SEMIMAJOR_AXIS":"6925.349","INCLINATION":"53.0532","SITE":"AFETR","OBJECT_NAME":"STARLINK-2067","OBJECT_ID":"2021-012BG","TLE_LINE2":"2 47674  53.0532 282.5795 0001596  77.4741 282.6427 15.06399959102771","CENTER_NAME":"EARTH","FILE":"3716752","APOAPSIS":"548.319","COUNTRY_CODE":"US","BSTAR":"0.00033437000000","TLE_LINE1":"1 47674U 21012BG  22355.54021930  .00004702  00000-0  33437-3 0  9991","PERIAPSIS":"546.108","LAUNCH_DATE":"2021-02-16","OBJECT_TYPE":"PAYLOAD","REV_AT_EPOCH":"10277","EPOCH":"2022-12-21T12:57:54.947520","NORAD_CAT_ID":"47674","RCS_SIZE":"LARGE","CLASSIFICATION_TYPE":"U","ARG_OF_PERICENTER":"77.4741","RA_OF_ASC_NODE":"282.5795","MEAN_MOTION_DOT":"0.00004702","TIME_SYSTEM":"UTC","ELEMENT_SET_NO":"999","DECAY_DATE":null,"REF_FRAME":"TEME","MEAN_ELEMENT_THEORY":"SGP4","EPHEMERIS_TYPE":"0","PERIOD":"95.592","MEAN_ANOMALY":"282.6427","MEAN_MOTION_DDOT":"0.0000000000000","MEAN_MOTION":"15.06399959","GP_ID":"221122764","ECCENTRICITY":"0.00015960"},{"CENTER_NAME":"EARTH","FILE":"3716752","TLE_LINE2":"2 47675  53.0556 282.6119 0001436  75.5049 284.6100 15.06390221102775","OBJECT_NAME":"STARLINK-2078","SITE":"AFETR","OBJECT_ID":"2021-012BH","SEMIMAJOR_AXIS":"6925.379","INCLINATION":"53.0556","LAUNCH_DATE":"2021-02-16","OBJECT_TYPE":"PAYLOAD","REV_AT_EPOCH":"10277","TLE_LINE1":"1 47675U 21012BH  22355.53378610 -.00002385  00000-0 -14128-3 0  9994","BSTAR":"-0.00014128000000","PERIAPSIS":"546.249","APOAPSIS":"548.238","COUNTRY_CODE":"US","DECAY_DATE":null,"REF_FRAME":"TEME","ELEMENT_SET_NO":"999","MEAN_MOTION_DOT":"-0.00002385","RA_OF_ASC_NODE":"282.6119","ARG_OF_PERICENTER":"75.5049","TIME_SYSTEM":"UTC","CLASSIFICATION_TYPE":"U","RCS_SIZE":"LARGE","EPOCH":"2022-12-21T12:48:39.119040","NORAD_CAT_ID":"47675","GP_ID":"221122867","MEAN_MOTION":"15.06390221","MEAN_MOTION_DDOT":"0.0000000000000","ECCENTRICITY":"0.00014360","PERIOD":"95.593","MEAN_ANOMALY":"284.6100","EPHEMERIS_TYPE":"0","MEAN_ELEMENT_THEORY":"SGP4"}];
